{
    "CCSDS_OMM_VERS": "3.0",
    "COMMENT": "GENERATED VIA SPACE-TRACK.ORG API",
    "CREATION_DATE": "2025-05-23T14:26:18",
    "ORIGINATOR": "18 SPCS",
    "OBJECT_NAME": "COSMOS 2557 (GLONASS)",
    "OBJECT_ID": "2022-075A",
    "CENTER_NAME": "EARTH",
    "REF_FRAME": "TEME",
    "TIME_SYSTEM": "UTC",
    "MEAN_ELEMENT_THEORY": "SGP4",
    "EPOCH": "2025-05-23T03:40:51.011616",
    "MEAN_MOTION": "2.13101993",
    "ECCENTRICITY": "0.00104690",
    "INCLINATION": "64.5195",
    "RA_OF_ASC_NODE": "328.1971",
    "ARG_OF_PERICENTER": "281.0391",
    "MEAN_ANOMALY": "78.8636",
    "EPHEMERIS_TYPE": "0",
    "CLASSIFICATION_TYPE": "U",
    "NORAD_CAT_ID": "52984",
    "ELEMENT_SET_NO": "999",
    "REV_AT_EPOCH": "2239",
    "BSTAR": "0.00000000000000",
    "MEAN_MOTION_DOT": "-0.00000030",
    "MEAN_MOTION_DDOT": "0.0000000000000",
    "SEMIMAJOR_AXIS": "25508.025",
    "PERIOD": "675.733",
    "APOAPSIS": "19156.594",
    "PERIAPSIS": "19103.186",
    "OBJECT_TYPE": "PAYLOAD",
    "RCS_SIZE": "LARGE",
    "COUNTRY_CODE": "CIS",
    "LAUNCH_DATE": "2022-07-07",
    "SITE": "PKMTR",
    "DECAY_DATE": null,
    "FILE": "4736915",
    "GP_ID": "288172924",
    "TLE_LINE0": "0 COSMOS 2557 (GLONASS)",
    "TLE_LINE1": "1 52984U 22075A   25143.15336819 -.00000030  00000-0  00000+0 0  9998",
    "TLE_LINE2": "2 52984  64.5195 328.1971 0010469 281.0391  78.8636  2.13101993 22398"
}